STARLINK-30380          
1 57780U 23134K   26068.66358598 -.00002094  00000+0 -66602-4 0  9992
2 57780  43.0014 194.5511 0001768 269.1236  90.9413 15.27567352139505
FLOCK 4G-15             
1 62678U 25009BX  26068.71779869  .00012647  00000+0  47575-3 0  9991
2 62678  97.4054 151.1927 0003699 316.8208  43.2740 15.27266411121358
